[{"OBJECT_NAME":"NINGXIA-1 3","OBJECT_ID":"2019-076C","EPOCH":"2026-03-09T23:01:21.931104","MEAN_MOTION":14.02037323,"ECCENTRICITY":0.00099226,"INCLINATION":44.9997,"RA_OF_ASC_NODE":261.8703,"ARG_OF_PERICENTER":34.5677,"MEAN_ANOMALY":325.58,"EPHEMERIS_TYPE":0,"CLASSIFICATION_TYPE":"U","NORAD_CAT_ID":44781,"ELEMENT_SET_NO":999,"REV_AT_EPOCH":32393,"BSTAR":9.6124184e-5,"MEAN_MOTION_DOT":1.8e-7,"MEAN_MOTION_DDOT":0},{"OBJECT_NAME":"COSMOS 1266 COOLANT","OBJECT_ID":"1981-037E","EPOCH":"2026-02-27T04:01:34.366368","MEAN_MOTION":13.92070566,"ECCENTRICITY":0.00480549,"INCLINATION":64.7592,"RA_OF_ASC_NODE":212.6256,"ARG_OF_PERICENTER":289.0997,"MEAN_ANOMALY":70.4865,"EPHEMERIS_TYPE":0,"CLASSIFICATION_TYPE":"U","NORAD_CAT_ID":29203,"ELEMENT_SET_NO":999,"REV_AT_EPOCH":23594,"BSTAR":0.00014146329,"MEAN_MOTION_DOT":9.0e-7,"MEAN_MOTION_DDOT":0}]
